{"type": "FeatureCollection", "features": [ {"type": "Feature", "properties": {"norad_id": 34819, "name": "COSMOS 2251 DEB", "group": "cosmos-2251-debris", "lat": 39.887841102447766, "lon": -47.449363732626736, "alt_km": 679.4374738214483, "timestamp": "2025-12-10T18:57:00.460307+00:00", "meta": {"OBJECT_NAME": "COSMOS 2251 DEB", "OBJECT_ID": "1993-036ABJ", "EPOCH": "2025-12-09T21:41:51.224640", "MEAN_MOTION": 14.63892789, "ECCENTRICITY": 0.00157861, "INCLINATION": 74.0186, "RA_OF_ASC_NODE": 148.1101, "ARG_OF_PERICENTER": 242.0271, "MEAN_ANOMALY": 271.3932, "EPHEMERIS_TYPE": 0, "CLASSIFICATION_TYPE": "U", "NORAD_CAT_ID": 34819, "ELEMENT_SET_NO": 999, "REV_AT_EPOCH": 88187, "BSTAR": 0.0022468866, "MEAN_MOTION_DOT": 0.00011759, "MEAN_MOTION_DDOT": 0}, "tle": {"line1": "1 34819U 93036ABJ 25343.90406510  .00011759  00000+0  22469-2 0  9995", "line2": "2 34819  74.0186 148.1101 0015786 242.0271 271.3932 14.63892789881870"}}, "geometry": {"type": "Point", "coordinates": [-47.449363732626736, 39.887841102447766]}}, {"type": "Feature", "properties": {"norad_id": 34823, "name": "COSMOS 2251 DEB", "group": "cosmos-2251-debris", "lat": -64.85423519060772, "lon": -36.467104365899154, "alt_km": 658.82334914493, "timestamp": "2025-12-10T18:57:00.460317+00:00", "meta": {"OBJECT_NAME": "COSMOS 2251 DEB", "OBJECT_ID": "1993-036ABN", "EPOCH": "2025-12-10T09:33:26.201088", "MEAN_MOTION": 14.54901964, "ECCENTRICITY": 0.0154906, "INCLINATION": 74.0413, "RA_OF_ASC_NODE": 106.7125, "ARG_OF_PERICENTER": 192.0591, "MEAN_ANOMALY": 167.685, "EPHEMERIS_TYPE": 0, "CLASSIFICATION_TYPE": "U", "NORAD_CAT_ID": 34823, "ELEMENT_SET_NO": 999, "REV_AT_EPOCH": 88347, "BSTAR": 0.0013313, "MEAN_MOTION_DOT": 6.696e-05, "MEAN_MOTION_DDOT": 0}, "tle": {"line1": "1 34823U 93036ABN 25344.39821992  .00006696  00000+0  13313-2 0  9991", "line2": "2 34823  74.0413 106.7125 0154906 192.0591 167.6850 14.54901964883471"}}, "geometry": {"type": "Point", "coordinates": [-36.467104365899154, -64.85423519060772]}}, {"type": "Feature", "properties": {"norad_id": 34845, "name": "COSMOS 2251 DEB", "group": "cosmos-2251-debris", "lat": -71.0294683147145, "lon": 95.54037533975712, "alt_km": 732.8380179941596, "timestamp": "2025-12-10T18:57:00.460327+00:00", "meta": {"OBJECT_NAME": "COSMOS 2251 DEB", "OBJECT_ID": "1993-036ABP", "EPOCH": "2025-12-09T20:04:05.418048", "MEAN_MOTION": 14.45850049, "ECCENTRICITY": 0.00222586, "INCLINATION": 74.0237, "RA_OF_ASC_NODE": 153.7694, "ARG_OF_PERICENTER": 315.2139, "MEAN_ANOMALY": 44.7222, "EPHEMERIS_TYPE": 0, "CLASSIFICATION_TYPE": "U", "NORAD_CAT_ID": 34845, "ELEMENT_SET_NO": 999, "REV_AT_EPOCH": 87424, "BSTAR": 0.00046671234, "MEAN_MOTION_DOT": 1.636e-05, "MEAN_MOTION_DDOT": 0}, "tle": {"line1": "1 34845U 93036ABP 25343.83617382  .00001636  00000+0  46671-3 0  9992", "line2": "2 34845  74.0237 153.7694 0022258 315.2139  44.7222 14.45850049874243"}}, "geometry": {"type": "Point", "coordinates": [95.54037533975712, -71.0294683147145]}}, {"type": "Feature", "properties": {"norad_id": 34846, "name": "COSMOS 2251 DEB", "group": "cosmos-2251-debris", "lat": -28.812870947439105, "lon": 94.4848384597941, "alt_km": 750.1313549171773, "timestamp": "2025-12-10T18:57:00.460337+00:00", "meta": {"OBJECT_NAME": "COSMOS 2251 DEB", "OBJECT_ID": "1993-036ABQ", "EPOCH": "2025-12-09T22:04:20.854848", "MEAN_MOTION": 14.47185616, "ECCENTRICITY": 0.00260534, "INCLINATION": 74.0307, "RA_OF_ASC_NODE": 267.0486, "ARG_OF_PERICENTER": 333.8398, "MEAN_ANOMALY": 26.1442, "EPHEMERIS_TYPE": 0, "CLASSIFICATION_TYPE": "U", "NORAD_CAT_ID": 34846, "ELEMENT_SET_NO": 999, "REV_AT_EPOCH": 87363, "BSTAR": 0.0013251291, "MEAN_MOTION_DOT": 4.835e-05, "MEAN_MOTION_DDOT": 0}, "tle": {"line1": "1 34846U 93036ABQ 25343.91968582  .00004835  00000+0  13251-2 0  9994", "line2": "2 34846  74.0307 267.0486 0026053 333.8398  26.1442 14.47185616873633"}}, "geometry": {"type": "Point", "coordinates": [94.4848384597941, -28.812870947439105]}}, {"type": "Feature", "properties": {"norad_id": 34852, "name": "COSMOS 2251 DEB", "group": "cosmos-2251-debris", "lat": -11.831519813209832, "lon": -96.8797555363564, "alt_km": 761.8353306062454, "timestamp": "2025-12-10T18:57:00.460347+00:00", "meta": {"OBJECT_NAME": "COSMOS 2251 DEB", "OBJECT_ID": "1993-036ABW", "EPOCH": "2025-12-09T12:55:56.817120", "MEAN_MOTION": 14.37001055, "ECCENTRICITY": 0.0016022, "INCLINATION": 74.0329, "RA_OF_ASC_NODE": 268.8581, "ARG_OF_PERICENTER": 12.6756, "MEAN_ANOMALY": 347.4797, "EPHEMERIS_TYPE": 0, "CLASSIFICATION_TYPE": "U", "NORAD_CAT_ID": 34852, "ELEMENT_SET_NO": 999, "REV_AT_EPOCH": 87488, "BSTAR": 0.00021796, "MEAN_MOTION_DOT": 6.21e-06, "MEAN_MOTION_DDOT": 0}, "tle": {"line1": "1 34852U 93036ABW 25343.53885205  .00000621  00000+0  21796-3 0  9992", "line2": "2 34852  74.0329 268.8581 0016022  12.6756 347.4797 14.37001055874887"}}, "geometry": {"type": "Point", "coordinates": [-96.8797555363564, -11.831519813209832]}}, {"type": "Feature", "properties": {"norad_id": 34854, "name": "COSMOS 2251 DEB", "group": "cosmos-2251-debris", "lat": -24.680918011619916, "lon": 154.842807902516, "alt_km": 621.8400149033323, "timestamp": "2025-12-10T18:57:00.460357+00:00", "meta": {"OBJECT_NAME": "COSMOS 2251 DEB", "OBJECT_ID": "1993-036ABY", "EPOCH": "2025-12-10T04:25:53.682240", "MEAN_MOTION": 14.76585117, "ECCENTRICITY": 0.0066172, "INCLINATION": 74.0287, "RA_OF_ASC_NODE": 163.5908, "ARG_OF_PERICENTER": 275.7691, "MEAN_ANOMALY": 83.5942, "EPHEMERIS_TYPE": 0, "CLASSIFICATION_TYPE": "U", "NORAD_CAT_ID": 34854, "ELEMENT_SET_NO": 999, "REV_AT_EPOCH": 71844, "BSTAR": 0.00096088, "MEAN_MOTION_DOT": 6.925e-05, "MEAN_MOTION_DDOT": 0}, "tle": {"line1": "1 34854U 93036ABY 25344.18464910  .00006925  00000+0  96088-3 0  9991", "line2": "2 34854  74.0287 163.5908 0066172 275.7691  83.5942 14.76585117718445"}}, "geometry": {"type": "Point", "coordinates": [154.842807902516, -24.680918011619916]}}, {"type": "Feature", "properties": {"norad_id": 34856, "name": "COSMOS 2251 DEB", "group": "cosmos-2251-debris", "lat": -20.500543306456887, "lon": -84.9768926964666, "alt_km": 532.9822661524777, "timestamp": "2025-12-10T18:57:00.460366+00:00", "meta": {"OBJECT_NAME": "COSMOS 2251 DEB", "OBJECT_ID": "1993-036ACA", "EPOCH": "2025-12-10T07:00:15.941088", "MEAN_MOTION": 15.0584424, "ECCENTRICITY": 0.0033146, "INCLINATION": 73.9971, "RA_OF_ASC_NODE": 89.8858, "ARG_OF_PERICENTER": 227.9578, "MEAN_ANOMALY": 156.3174, "EPHEMERIS_TYPE": 0, "CLASSIFICATION_TYPE": "U", "NORAD_CAT_ID": 34856, "ELEMENT_SET_NO": 999, "REV_AT_EPOCH": 89075, "BSTAR": 0.0030021, "MEAN_MOTION_DOT": 0.00044359, "MEAN_MOTION_DDOT": 0}, "tle": {"line1": "1 34856U 93036ACA 25344.29185117  .00044359  00000+0  30021-2 0  9991", "line2": "2 34856  73.9971  89.8858 0033146 227.9578 156.3174 15.05844240890756"}}, "geometry": {"type": "Point", "coordinates": [-84.9768926964666, -20.500543306456887]}}, {"type": "Feature", "properties": {"norad_id": 34857, "name": "COSMOS 2251 DEB", "group": "cosmos-2251-debris", "lat": -1.146081455800673, "lon": -69.12244050914342, "alt_km": 672.1857477848353, "timestamp": "2025-12-10T18:57:00.460376+00:00", "meta": {"OBJECT_NAME": "COSMOS 2251 DEB", "OBJECT_ID": "1993-036ACB", "EPOCH": "2025-12-10T10:09:42.100416", "MEAN_MOTION": 14.5885085, "ECCENTRICITY": 0.0065922, "INCLINATION": 74.0153, "RA_OF_ASC_NODE": 111.2471, "ARG_OF_PERICENTER": 236.0948, "MEAN_ANOMALY": 183.224, "EPHEMERIS_TYPE": 0, "CLASSIFICATION_TYPE": "U", "NORAD_CAT_ID": 34857, "ELEMENT_SET_NO": 999, "REV_AT_EPOCH": 87867, "BSTAR": 0.0018914, "MEAN_MOTION_DOT": 9.104e-05, "MEAN_MOTION_DDOT": 0}, "tle": {"line1": "1 34857U 93036ACB 25344.42340394  .00009104  00000+0  18914-2 0  9993", "line2": "2 34857  74.0153 111.2471 0065922 236.0948 183.2240 14.58850850878672"}}, "geometry": {"type": "Point", "coordinates": [-69.12244050914342, -1.146081455800673]}}, {"type": "Feature", "properties": {"norad_id": 34859, "name": "COSMOS 2251 DEB", "group": "cosmos-2251-debris", "lat": 68.9322738873765, "lon": 115.6938383579846, "alt_km": 517.6041071996879, "timestamp": "2025-12-10T18:57:00.460387+00:00", "meta": {"OBJECT_NAME": "COSMOS 2251 DEB", "OBJECT_ID": "1993-036ACD", "EPOCH": "2025-12-10T11:07:51.238272", "MEAN_MOTION": 15.14113317, "ECCENTRICITY": 0.0002618, "INCLINATION": 74.0303, "RA_OF_ASC_NODE": 344.3921, "ARG_OF_PERICENTER": 331.4032, "MEAN_ANOMALY": 157.2972, "EPHEMERIS_TYPE": 0, "CLASSIFICATION_TYPE": "U", "NORAD_CAT_ID": 34859, "ELEMENT_SET_NO": 999, "REV_AT_EPOCH": 88324, "BSTAR": 0.0072409, "MEAN_MOTION_DOT": 0.00134384, "MEAN_MOTION_DDOT": 0}, "tle": {"line1": "1 34859U 93036ACD 25344.46378748  .00134384  00000+0  72409-2 0  9991", "line2": "2 34859  74.0303 344.3921 0002618 331.4032 157.2972 15.14113317883242"}}, "geometry": {"type": "Point", "coordinates": [115.6938383579846, 68.9322738873765]}}, {"type": "Feature", "properties": {"norad_id": 34861, "name": "COSMOS 2251 DEB", "group": "cosmos-2251-debris", "lat": 73.30610919833768, "lon": 161.96951374653113, "alt_km": 548.687947460844, "timestamp": "2025-12-10T18:57:00.460396+00:00", "meta": {"OBJECT_NAME": "COSMOS 2251 DEB", "OBJECT_ID": "1993-036ACF", "EPOCH": "2025-12-10T05:59:36.099168", "MEAN_MOTION": 15.02321054, "ECCENTRICITY": 0.0006722, "INCLINATION": 74.0188, "RA_OF_ASC_NODE": 55.9366, "ARG_OF_PERICENTER": 54.9215, "MEAN_ANOMALY": 1.2852, "EPHEMERIS_TYPE": 0, "CLASSIFICATION_TYPE": "U", "NORAD_CAT_ID": 34861, "ELEMENT_SET_NO": 999, "REV_AT_EPOCH": 88055, "BSTAR": 0.003625, "MEAN_MOTION_DOT": 0.00048237, "MEAN_MOTION_DDOT": 0}, "tle": {"line1": "1 34861U 93036ACF 25344.24972337  .00048237  00000+0  36250-2 0  9999", "line2": "2 34861  74.0188  55.9366 0006722  54.9215   1.2852 15.02321054880556"}}, "geometry": {"type": "Point", "coordinates": [161.96951374653113, 73.30610919833768]}}]}